NORAD_CAT_ID,OBJECT_NAME,OBJECT_TYPE,EPOCH,MEAN_MOTION,ECCENTRICITY,INCLINATION,RA_OF_ASC_NODE,ARG_OF_PERICENTER,MEAN_ANOMALY,BSTAR,MEAN_MOTION_DOT,MEAN_MOTION_DDOT,TLE_LINE0,TLE_LINE1,TLE_LINE2,SEMIMAJOR_AXIS,PERIOD,APOGEE,PERIGEE,DECAYED
52707.0,STARLINK-4007,PAYLOAD,2024-05-18 21:48:41,15.0887129,0.0001181,53.2167,215.8741,73.2736,286.8385,0.00054899,8.467e-05,0.0,0 STARLINK-4007,1 52707U 22053BD  24139.90881834  .00008467  00000-0  54899-3 0  9996,2 52707  53.2167 215.8741 0001181  73.2736 286.8385 15.08871290111772,6917.785,95.436,540.467,538.833,0.0
52707.0,STARLINK-4007,PAYLOAD,2024-05-19 04:10:14,15.08849527,0.0002377,53.2169,214.6873,87.9951,272.1314,0.00034792,5.255e-05,0.0,0 STARLINK-4007,1 52707U 22053BD  24140.17378388  .00005255  00000-0  34792-3 0  9994,2 52707  53.2169 214.6873 0002377  87.9951 272.1314 15.08849527111336,6917.851,95.437,541.361,538.072,0.0
52707.0,STARLINK-4007,PAYLOAD,2024-05-19 12:07:10,15.08828047,9.21e-05,53.2168,213.2015,120.6496,239.4587,0.0015027,0.000237,0.0,0 STARLINK-4007,1 52707U 22053BD  24140.50498728  .00023700  00000-0  15027-2 0  9996,2 52707  53.2168 213.2015 0000921 120.6496 239.4587 15.08828047111860,6917.917,95.438,540.419,539.145,0.0
52707.0,STARLINK-4007,PAYLOAD,2024-05-20 11:57:57,15.08859042,9.72e-05,53.2165,208.7409,111.1708,248.9388,0.001211,0.00019048,0.0,0 STARLINK-4007,1 52707U 22053BD  24141.49858689  .00019048  00000-0  12110-2 0  9991,2 52707  53.2165 208.7409 0000972 111.1708 248.9388 15.08859042111537,6917.822,95.436,540.36,539.015,0.0
52707.0,STARLINK-4007,PAYLOAD,2024-05-21 03:51:49,15.08850745,9.75e-05,53.2159,205.7668,92.5167,267.5936,0.00077092,0.00012006,0.0,0 STARLINK-4007,1 52707U 22053BD  24142.16098639  .00012006  00000-0  77092-3 0  9995,2 52707  53.2159 205.7668 0000975  92.5167 267.5936 15.08850745111636,6917.848,95.437,540.387,539.038,0.0
52707.0,STARLINK-4007,PAYLOAD,2024-05-21 11:48:45,15.08844931,0.0001264,53.2164,204.2806,58.9635,301.1481,0.00019697,2.849e-05,0.0,0 STARLINK-4007,1 52707U 22053BD  24142.49218855  .00002849  00000-0  19697-3 0  9996,2 52707  53.2164 204.2806 0001264  58.9635 301.1481 15.08844931111683,6917.865,95.437,540.605,538.856,0.0
52707.0,STARLINK-4007,PAYLOAD,2024-05-22 10:04:08,15.08848608,0.0001084,53.2161,200.1176,70.1057,290.0052,0.0001724,2.458e-05,0.0,0 STARLINK-4007,1 52707U 22053BD  24143.41954373  .00002458  00000-0  17240-3 0  9999,2 52707  53.2161 200.1176 0001084  70.1057 290.0052 15.08848608112304,6917.854,95.437,540.469,538.969,0.0
52707.0,STARLINK-4007,PAYLOAD,2024-05-23 08:19:32,15.08841819,0.0001241,53.2157,195.9549,62.5686,297.5432,6.9032e-05,8.11e-06,0.0,0 STARLINK-4007,1 52707U 22053BD  24144.34690607  .00000811  00000-0  69032-4 0  9997,2 52707  53.2157 195.9549 0001241  62.5686 297.5432 15.08841819111964,6917.875,95.437,540.598,538.881,0.0
52707.0,STARLINK-4007,PAYLOAD,2024-05-24 03:24:09,15.08853156,0.0001161,53.2144,192.3877,85.6842,274.4282,0.00025553,3.783e-05,0.0,0 STARLINK-4007,1 52707U 22053BD  24145.14177583  .00003783  00000-0  25553-3 0  9999,2 52707  53.2144 192.3877 0001161  85.6842 274.4282 15.08853156112084,6917.84,95.437,540.508,538.902,0.0
52707.0,STARLINK-4007,PAYLOAD,2024-05-24 09:45:41,15.08870773,0.0001213,53.2157,191.1982,91.5486,268.5645,0.00056138,8.665e-05,0.0,0 STARLINK-4007,1 52707U 22053BD  24145.40672822  .00008665  00000-0  56138-3 0  9991,2 52707  53.2157 191.1982 0001213  91.5486 268.5645 15.08870773112126,6917.786,95.436,540.49,538.812,0.0
52707.0,STARLINK-4007,PAYLOAD,2024-05-25 03:14:56,15.08844592,0.0001266,53.2148,187.9317,97.296,262.8176,2.0561e-05,3.9e-07,0.0,0 STARLINK-4007,1 52707U 22053BD  24146.13537436  .00000039  00000-0  20561-4 0  9992,2 52707  53.2148 187.9317 0001266  97.2960 262.8176 15.08844592112237,6917.866,95.437,540.607,538.856,0.0
52707.0,STARLINK-4007,PAYLOAD,2024-05-25 09:36:29,15.08833917,9.06e-05,53.2144,186.7309,94.4093,265.7002,-0.00013854,-2.491e-05,0.0,0 STARLINK-4007,1 52707U 22053BD  24146.40033790 -.00002491  00000-0 -13854-3 0  9998,2 52707  53.2144 186.7309 0000906  94.4093 265.7002 15.08833917112270,6917.899,95.438,540.391,539.137,0.0
52707.0,STARLINK-4007,PAYLOAD,2024-05-25 19:08:46,15.08879678,7.25e-05,53.2158,184.958,168.7528,191.3481,0.00057634,8.906e-05,0.0,0 STARLINK-4007,1 52707U 22053BD  24146.79775602  .00008906  00000-0  57634-3 0  9994,2 52707  53.2158 184.9580 0000725 168.7528 191.3481 15.08879678112339,6917.759,95.435,540.126,539.123,0.0
52707.0,STARLINK-4007,PAYLOAD,2024-05-26 07:51:53,15.08835276,0.0001021,53.215,182.57,94.6132,265.4977,-0.00022927,-3.934e-05,0.0,0 STARLINK-4007,1 52707U 22053BD  24147.32770076 -.00003934  00000-0 -22927-3 0  9999,2 52707  53.2150 182.5700 0001021  94.6132 265.4977 15.08835276112415,6917.895,95.438,540.466,539.054,0.0
52707.0,STARLINK-4007,PAYLOAD,2024-05-26 18:59:35,15.08828835,0.0001841,53.2166,180.5025,136.218,223.8958,-0.00018303,-3.199e-05,0.0,0 STARLINK-4007,1 52707U 22053BD  24147.79138492 -.00003199  00000-0 -18303-3 0  9996,2 52707  53.2166 180.5025 0001841 136.2180 223.8958 15.08828835112966,6917.915,95.438,541.053,538.506,0.0
52707.0,STARLINK-4007,PAYLOAD,2024-05-27 09:18:05,15.08803836,0.0002282,53.2177,177.8255,137.3521,222.7649,-0.00016592,-2.925e-05,0.0,0 STARLINK-4007,1 52707U 22053BD  24148.38756522 -.00002925  00000-0 -16592-3 0  9996,2 52707  53.2177 177.8255 0002282 137.3521 222.7649 15.08803836112579,6917.991,95.44,541.435,538.277,0.0
52707.0,STARLINK-4007,PAYLOAD,2024-05-28 10:44:14,15.08841939,9.81e-05,53.2147,173.0551,95.1478,264.9626,0.00022146,3.239e-05,0.0,0 STARLINK-4007,1 52707U 22053BD  24149.44739095  .00003239  00000-0  22146-3 0  9999,2 52707  53.2147 173.0551 0000981  95.1478 264.9626 15.08841939112736,6917.874,95.437,540.418,539.061,0.0
52707.0,STARLINK-4007,PAYLOAD,2024-05-29 08:59:38,15.08841692,0.0001067,53.2156,168.8914,92.7291,267.3823,0.00010521,1.387e-05,0.0,0 STARLINK-4007,1 52707U 22053BD  24150.37475193  .00001387  00000-0  10521-3 0  9995,2 52707  53.2156 168.8914 0001067  92.7291 267.3823 15.08841692112870,6917.875,95.437,540.478,539.002,0.0
52707.0,STARLINK-4007,PAYLOAD,2024-05-30 10:25:48,15.08845774,0.0001091,53.2163,164.1339,88.0005,272.1112,8.1334e-05,1.007e-05,0.0,0 STARLINK-4007,1 52707U 22053BD  24151.43459156  .00001007  00000-0  81334-4 0  9994,2 52707  53.2163 164.1339 0001091  88.0005 272.1112 15.08845774113035,6917.863,95.437,540.482,538.973,0.0
52707.0,STARLINK-4007,PAYLOAD,2024-05-31 07:05:49,15.08847522,0.0001083,53.2164,160.2695,91.3161,268.7955,0.0001265,1.726e-05,0.0,0 STARLINK-4007,1 52707U 22053BD  24152.29570776  .00001726  00000-0  12650-3 0  9993,2 52707  53.2164 160.2695 0001083  91.3161 268.7955 15.08847522113645,6917.857,95.437,540.472,538.973,0.0
52707.0,STARLINK-4007,PAYLOAD,2024-06-01 05:21:13,15.08836989,0.0001065,53.2162,156.1055,95.7784,264.333,1.5452e-05,-4.2e-07,0.0,0 STARLINK-4007,1 52707U 22053BD  24153.22307533 -.00000042  00000-0  15452-4 0  9991,2 52707  53.2162 156.1055 0001065  95.7784 264.3330 15.08836989113303,6917.89,95.438,540.491,539.018,0.0
52707.0,STARLINK-4007,PAYLOAD,2024-06-01 06:56:36,15.08835658,0.0001037,53.216,155.8091,90.8354,269.2757,5.9136e-06,-1.94e-06,0.0,0 STARLINK-4007,1 52707U 22053BD  24153.28931648 -.00000194  00000-0  59136-5 0  9993,2 52707  53.2160 155.8091 0001037  90.8354 269.2757 15.08835658113797,6917.894,95.438,540.476,539.041,0.0
52707.0,STARLINK-4007,PAYLOAD,2024-06-02 06:47:23,15.08841107,0.0001103,53.2161,151.3494,90.4533,269.6586,5.0233e-05,5.12e-06,0.0,0 STARLINK-4007,1 52707U 22053BD  24154.28291269  .00000512  00000-0  50233-4 0  9993,2 52707  53.2161 151.3494 0001103  90.4533 269.6586 15.08841107113469,6917.877,95.437,540.505,538.979,0.0
52707.0,STARLINK-4007,PAYLOAD,2024-06-03 06:38:10,15.08839709,0.0001152,53.2164,146.8885,88.4845,271.6279,0.00012083,1.636e-05,0.0,0 STARLINK-4007,1 52707U 22053BD  24155.27651431  .00001636  00000-0  12083-3 0  9992,2 52707  53.2164 146.8885 0001152  88.4845 271.6279 15.08839709114099,6917.881,95.438,540.543,538.949,0.0
52707.0,STARLINK-4007,PAYLOAD,2024-06-03 16:10:29,15.08839212,0.0001177,53.2166,145.1046,88.9367,271.176,8.3345e-05,1.039e-05,0.0,0 STARLINK-4007,1 52707U 22053BD  24155.67395632  .00001039  00000-0  83345-4 0  9991,2 52707  53.2166 145.1046 0001177  88.9367 271.1760 15.08839212113675,6917.883,95.438,540.562,538.934,0.0
52707.0,STARLINK-4007,PAYLOAD,2024-06-04 08:04:21,15.08842714,0.0001233,53.217,142.1313,88.6091,271.5043,7.1295e-05,8.47e-06,0.0,0 STARLINK-4007,1 52707U 22053BD  24156.33635528  .00000847  00000-0  71295-4 0  9993,2 52707  53.2170 142.1313 0001233  88.6091 271.5043 15.08842714114252,6917.872,95.437,540.59,538.884,0.0
52707.0,STARLINK-4007,PAYLOAD,2024-06-04 16:01:16,15.08842769,0.0001225,53.2171,140.6441,85.9061,274.2071,7.9769e-05,9.82e-06,0.0,0 STARLINK-4007,1 52707U 22053BD  24156.66755504  .00000982  00000-0  79769-4 0  9990,2 52707  53.2171 140.6441 0001225  85.9061 274.2071 15.08842769114303,6917.872,95.437,540.584,538.889,0.0
52707.0,STARLINK-4007,PAYLOAD,2024-06-05 04:44:22,15.08840105,0.0001276,53.217,138.2656,86.2308,273.883,4.1873e-05,3.79e-06,0.0,0 STARLINK-4007,1 52707U 22053BD  24157.19747741  .00000379  00000-0  41873-4 0  9998,2 52707  53.2170 138.2656 0001276  86.2308 273.8830 15.08840105113902,6917.88,95.438,540.628,538.862,0.0
52707.0,STARLINK-4007,PAYLOAD,2024-06-05 07:55:08,15.08843273,0.0001309,53.2172,137.6711,86.3047,273.8094,6.6533e-05,7.71e-06,0.0,0 STARLINK-4007,1 52707U 22053BD  24157.32995459  .00000771  00000-0  66533-4 0  9990,2 52707  53.2172 137.6711 0001309  86.3047 273.8094 15.08843273114404,6917.87,95.437,540.641,538.83,0.0
52707.0,STARLINK-4007,PAYLOAD,2024-06-05 15:52:03,15.08842382,0.0001358,53.2175,136.1844,88.0158,272.099,2.1493e-05,5.4e-07,0.0,0 STARLINK-4007,1 52707U 22053BD  24157.66115640  .00000054  00000-0  21493-4 0  9993,2 52707  53.2175 136.1844 0001358  88.0158 272.0990 15.08842382114455,6917.873,95.437,540.678,538.799,0.0
